{"type": "FeatureCollection", "features": [ {"type": "Feature", "properties": {"norad_id": 34529, "name": "IRIDIUM 33 DEB", "group": "iridium-33-debris", "lat": 65.4470246751778, "lon": -155.66162163590104, "alt_km": 747.163984081114, "timestamp": "2025-12-19T22:41:52.780828+00:00", "meta": {"OBJECT_NAME": "IRIDIUM 33 DEB", "OBJECT_ID": "1997-051HW", "EPOCH": "2025-12-19T08:50:00.041856", "MEAN_MOTION": 14.40620735, "ECCENTRICITY": 0.0005577, "INCLINATION": 86.3636, "RA_OF_ASC_NODE": 32.5863, "ARG_OF_PERICENTER": 157.5108, "MEAN_ANOMALY": 202.6336, "EPHEMERIS_TYPE": 0, "CLASSIFICATION_TYPE": "U", "NORAD_CAT_ID": 34529, "ELEMENT_SET_NO": 999, "REV_AT_EPOCH": 88237, "BSTAR": 8.6825e-05, "MEAN_MOTION_DOT": 2.97e-06, "MEAN_MOTION_DDOT": 0}, "tle": {"line1": "1 34529U 97051HW  25353.36805604  .00000297  00000+0  86825-4 0  9995", "line2": "2 34529  86.3636  32.5863 0005577 157.5108 202.6336 14.40620735882377"}}, "geometry": {"type": "Point", "coordinates": [-155.66162163590104, 65.4470246751778]}}, {"type": "Feature", "properties": {"norad_id": 34538, "name": "IRIDIUM 33 DEB", "group": "iridium-33-debris", "lat": 4.732169986239753, "lon": 2.708523607642553, "alt_km": 741.0677223298399, "timestamp": "2025-12-19T22:41:52.780838+00:00", "meta": {"OBJECT_NAME": "IRIDIUM 33 DEB", "OBJECT_ID": "1997-051JF", "EPOCH": "2025-12-19T11:38:01.114368", "MEAN_MOTION": 14.42685195, "ECCENTRICITY": 0.0032244, "INCLINATION": 86.2759, "RA_OF_ASC_NODE": 2.6015, "ARG_OF_PERICENTER": 304.7784, "MEAN_ANOMALY": 186.9228, "EPHEMERIS_TYPE": 0, "CLASSIFICATION_TYPE": "U", "NORAD_CAT_ID": 34538, "ELEMENT_SET_NO": 999, "REV_AT_EPOCH": 87853, "BSTAR": 0.00065883, "MEAN_MOTION_DOT": 2.223e-05, "MEAN_MOTION_DDOT": 0}, "tle": {"line1": "1 34538U 97051JF  25353.48473512  .00002223  00000+0  65883-3 0  9998", "line2": "2 34538  86.2759   2.6015 0032244 304.7784 186.9228 14.42685195878536"}}, "geometry": {"type": "Point", "coordinates": [2.708523607642553, 4.732169986239753]}}, {"type": "Feature", "properties": {"norad_id": 34540, "name": "IRIDIUM 33 DEB", "group": "iridium-33-debris", "lat": -10.697363453280959, "lon": 125.00989212285897, "alt_km": 641.3001028298804, "timestamp": "2025-12-19T22:41:52.780849+00:00", "meta": {"OBJECT_NAME": "IRIDIUM 33 DEB", "OBJECT_ID": "1997-051JH", "EPOCH": "2025-12-18T08:57:29.352960", "MEAN_MOTION": 14.75435184, "ECCENTRICITY": 0.00173002, "INCLINATION": 86.3103, "RA_OF_ASC_NODE": 305.0304, "ARG_OF_PERICENTER": 139.8381, "MEAN_ANOMALY": 343.587, "EPHEMERIS_TYPE": 0, "CLASSIFICATION_TYPE": "U", "NORAD_CAT_ID": 34540, "ELEMENT_SET_NO": 999, "REV_AT_EPOCH": 89104, "BSTAR": 0.0013410572, "MEAN_MOTION_DOT": 9.16e-05, "MEAN_MOTION_DDOT": 0}, "tle": {"line1": "1 34540U 97051JH  25352.37325640  .00009160  00000+0  13411-2 0  9992", "line2": "2 34540  86.3103 305.0304 0017300 139.8381 343.5870 14.75435184891042"}}, "geometry": {"type": "Point", "coordinates": [125.00989212285897, -10.697363453280959]}}, {"type": "Feature", "properties": {"norad_id": 34648, "name": "IRIDIUM 33 DEB", "group": "iridium-33-debris", "lat": 55.88212226835823, "lon": 93.69016616399404, "alt_km": 963.7782661040428, "timestamp": "2025-12-19T22:41:52.780859+00:00", "meta": {"OBJECT_NAME": "IRIDIUM 33 DEB", "OBJECT_ID": "1997-051JZ", "EPOCH": "2025-12-18T13:46:37.352352", "MEAN_MOTION": 14.1166623, "ECCENTRICITY": 0.01808845, "INCLINATION": 86.3904, "RA_OF_ASC_NODE": 279.59, "ARG_OF_PERICENTER": 280.6676, "MEAN_ANOMALY": 77.4184, "EPHEMERIS_TYPE": 0, "CLASSIFICATION_TYPE": "U", "NORAD_CAT_ID": 34648, "ELEMENT_SET_NO": 999, "REV_AT_EPOCH": 85043, "BSTAR": 0.0055375481, "MEAN_MOTION_DOT": 0.00011772, "MEAN_MOTION_DDOT": 0}, "tle": {"line1": "1 34648U 97051JZ  25352.57404343  .00011772  00000+0  55375-2 0  9998", "line2": "2 34648  86.3904 279.5900 0180884 280.6676  77.4184 14.11666230850434"}}, "geometry": {"type": "Point", "coordinates": [93.69016616399404, 55.88212226835823]}}, {"type": "Feature", "properties": {"norad_id": 34651, "name": "IRIDIUM 33 DEB", "group": "iridium-33-debris", "lat": -12.572305281147527, "lon": -41.65726838229722, "alt_km": 709.6337919886155, "timestamp": "2025-12-19T22:41:52.780870+00:00", "meta": {"OBJECT_NAME": "IRIDIUM 33 DEB", "OBJECT_ID": "1997-051KC", "EPOCH": "2025-12-19T16:44:48.420096", "MEAN_MOTION": 14.25922062, "ECCENTRICITY": 0.0142246, "INCLINATION": 86.2827, "RA_OF_ASC_NODE": 137.6175, "ARG_OF_PERICENTER": 181.9677, "MEAN_ANOMALY": 178.0974, "EPHEMERIS_TYPE": 0, "CLASSIFICATION_TYPE": "U", "NORAD_CAT_ID": 34651, "ELEMENT_SET_NO": 999, "REV_AT_EPOCH": 85995, "BSTAR": 0.0022062, "MEAN_MOTION_DOT": 5.865e-05, "MEAN_MOTION_DDOT": 0}, "tle": {"line1": "1 34651U 97051KC  25353.69778264  .00005865  00000+0  22062-2 0  9995", "line2": "2 34651  86.2827 137.6175 0142246 181.9677 178.0974 14.25922062859957"}}, "geometry": {"type": "Point", "coordinates": [-41.65726838229722, -12.572305281147527]}}, {"type": "Feature", "properties": {"norad_id": 34652, "name": "IRIDIUM 33 DEB", "group": "iridium-33-debris", "lat": 78.1053289908653, "lon": 139.0564386606824, "alt_km": 696.922046396543, "timestamp": "2025-12-19T22:41:52.780880+00:00", "meta": {"OBJECT_NAME": "IRIDIUM 33 DEB", "OBJECT_ID": "1997-051KD", "EPOCH": "2025-12-19T17:51:26.256096", "MEAN_MOTION": 14.62117993, "ECCENTRICITY": 0.0025528, "INCLINATION": 86.331, "RA_OF_ASC_NODE": 336.8822, "ARG_OF_PERICENTER": 272.5866, "MEAN_ANOMALY": 207.7976, "EPHEMERIS_TYPE": 0, "CLASSIFICATION_TYPE": "U", "NORAD_CAT_ID": 34652, "ELEMENT_SET_NO": 999, "REV_AT_EPOCH": 88586, "BSTAR": 0.00063187, "MEAN_MOTION_DOT": 3.211e-05, "MEAN_MOTION_DDOT": 0}, "tle": {"line1": "1 34652U 97051KD  25353.74405389  .00003211  00000+0  63187-3 0  9994", "line2": "2 34652  86.3310 336.8822 0025528 272.5866 207.7976 14.62117993885869"}}, "geometry": {"type": "Point", "coordinates": [139.0564386606824, 78.1053289908653]}}, {"type": "Feature", "properties": {"norad_id": 34690, "name": "IRIDIUM 33 DEB", "group": "iridium-33-debris", "lat": 36.44737264042572, "lon": -148.82159967792353, "alt_km": 711.8066932486045, "timestamp": "2025-12-19T22:41:52.780890+00:00", "meta": {"OBJECT_NAME": "IRIDIUM 33 DEB", "OBJECT_ID": "1997-051KM", "EPOCH": "2025-12-19T02:30:15.635232", "MEAN_MOTION": 14.55118004, "ECCENTRICITY": 0.00100928, "INCLINATION": 86.3778, "RA_OF_ASC_NODE": 34.2255, "ARG_OF_PERICENTER": 8.472, "MEAN_ANOMALY": 50.0408, "EPHEMERIS_TYPE": 0, "CLASSIFICATION_TYPE": "U", "NORAD_CAT_ID": 34690, "ELEMENT_SET_NO": 999, "REV_AT_EPOCH": 88187, "BSTAR": 0.00032814485, "MEAN_MOTION_DOT": 1.438e-05, "MEAN_MOTION_DDOT": 0}, "tle": {"line1": "1 34690U 97051KM  25353.10434763  .00001438  00000+0  32814-3 0  9996", "line2": "2 34690  86.3778  34.2255 0010092   8.4720  50.0408 14.55118004881875"}}, "geometry": {"type": "Point", "coordinates": [-148.82159967792353, 36.44737264042572]}}, {"type": "Feature", "properties": {"norad_id": 34693, "name": "IRIDIUM 33 DEB", "group": "iridium-33-debris", "lat": -59.41237772958757, "lon": -66.03676023262868, "alt_km": 485.53434107499925, "timestamp": "2025-12-19T22:41:52.780900+00:00", "meta": {"OBJECT_NAME": "IRIDIUM 33 DEB", "OBJECT_ID": "1997-051KQ", "EPOCH": "2025-12-19T13:46:37.215840", "MEAN_MOTION": 15.29511324, "ECCENTRICITY": 0.0011988, "INCLINATION": 86.3048, "RA_OF_ASC_NODE": 300.4253, "ARG_OF_PERICENTER": 40.4179, "MEAN_ANOMALY": 14.8235, "EPHEMERIS_TYPE": 0, "CLASSIFICATION_TYPE": "U", "NORAD_CAT_ID": 34693, "ELEMENT_SET_NO": 999, "REV_AT_EPOCH": 89019, "BSTAR": 0.003017, "MEAN_MOTION_DOT": 0.00087318, "MEAN_MOTION_DDOT": 0}, "tle": {"line1": "1 34693U 97051KQ  25353.57404185  .00087318  00000+0  30170-2 0  9998", "line2": "2 34693  86.3048 300.4253 0011988  40.4179  14.8235 15.29511324890198"}}, "geometry": {"type": "Point", "coordinates": [-66.03676023262868, -59.41237772958757]}}, {"type": "Feature", "properties": {"norad_id": 34696, "name": "IRIDIUM 33 DEB", "group": "iridium-33-debris", "lat": -6.096616695380035, "lon": -155.4226258805475, "alt_km": 641.1894724105614, "timestamp": "2025-12-19T22:41:52.780911+00:00", "meta": {"OBJECT_NAME": "IRIDIUM 33 DEB", "OBJECT_ID": "1997-051KT", "EPOCH": "2025-12-19T02:26:16.937952", "MEAN_MOTION": 14.65392793, "ECCENTRICITY": 0.00738562, "INCLINATION": 86.184, "RA_OF_ASC_NODE": 24.5618, "ARG_OF_PERICENTER": 146.0479, "MEAN_ANOMALY": 268.8933, "EPHEMERIS_TYPE": 0, "CLASSIFICATION_TYPE": "U", "NORAD_CAT_ID": 34696, "ELEMENT_SET_NO": 999, "REV_AT_EPOCH": 86766, "BSTAR": 0.0030854988, "MEAN_MOTION_DOT": 0.00017409, "MEAN_MOTION_DDOT": 0}, "tle": {"line1": "1 34696U 97051KT  25353.10158493  .00017409  00000+0  30855-2 0  9992", "line2": "2 34696  86.1840  24.5618 0073856 146.0479 268.8933 14.65392793867664"}}, "geometry": {"type": "Point", "coordinates": [-155.4226258805475, -6.096616695380035]}}, {"type": "Feature", "properties": {"norad_id": 34765, "name": "IRIDIUM 33 DEB", "group": "iridium-33-debris", "lat": 27.003569587905364, "lon": -152.20036688067472, "alt_km": 746.4102116603399, "timestamp": "2025-12-19T22:41:52.780921+00:00", "meta": {"OBJECT_NAME": "IRIDIUM 33 DEB", "OBJECT_ID": "1997-051LJ", "EPOCH": "2025-12-18T13:21:25.941600", "MEAN_MOTION": 14.40479279, "ECCENTRICITY": 0.00160914, "INCLINATION": 86.3386, "RA_OF_ASC_NODE": 30.2656, "ARG_OF_PERICENTER": 191.4295, "MEAN_ANOMALY": 322.071, "EPHEMERIS_TYPE": 0, "CLASSIFICATION_TYPE": "U", "NORAD_CAT_ID": 34765, "ELEMENT_SET_NO": 999, "REV_AT_EPOCH": 87697, "BSTAR": 0.00029987235, "MEAN_MOTION_DOT": 9.74e-06, "MEAN_MOTION_DDOT": 0}, "tle": {"line1": "1 34765U 97051LJ  25352.55655025  .00000974  00000+0  29987-3 0  9994", "line2": "2 34765  86.3386  30.2656 0016091 191.4295 322.0710 14.40479279876970"}}, "geometry": {"type": "Point", "coordinates": [-152.20036688067472, 27.003569587905364]}}]}